CCSDS_OEM_VERS = 1.0
CREATION_DATE  = 2017-05-11T11:44:49
ORIGINATOR     = GMAT USER

META_START
OBJECT_NAME          = MOPSSat_alt_35785_km_RAAN_180_149
OBJECT_ID            = SatId
CENTER_NAME          = Earth
REF_FRAME            = EME2000
TIME_SYSTEM          = UTC
START_TIME           = 2017-01-01T00:00:00.000
USEABLE_START_TIME   = 2017-01-01T00:00:00.000
USEABLE_STOP_TIME    = 2017-01-02T00:00:00.000
STOP_TIME            = 2017-01-02T00:00:00.000
INTERPOLATION        = Lagrange
INTERPOLATION_DEGREE = 7 
META_STOP


                                                                                   

2017-01-01T19:51:40.000   2.095489137338760e+04   3.651041552559192e+04  -4.659846642260784e+00  -3.079289509813253e+00  -8.172727685915900e-03   1.252234234092820e-04
2017-01-01T19:51:50.000   2.092409287970622e+04   3.651032404031020e+04  -4.658593073353912e+00  -3.080409042846803e+00  -1.012468465161122e-02   1.254903900750646e-04
2017-01-01T19:52:00.000   2.089328319306188e+04   3.651021302476536e+04  -4.657336833688811e+00  -3.081528157320052e+00  -1.207878102755786e-02   1.257575773456226e-04
2017-01-01T19:52:10.000   2.086246231796243e+04   3.651008245755018e+04  -4.656077921071187e+00  -3.082646851247150e+00  -1.403501966000161e-02   1.260249854167798e-04
2017-01-01T19:52:20.000   2.083163025831072e+04   3.650993231722630e+04  -4.654816333279260e+00  -3.083765122658336e+00  -1.599340343910105e-02   1.262926144898902e-04
2017-01-01T19:52:30.000   2.080078701809989e+04   3.650976258232684e+04  -4.653552068092133e+00  -3.084882969574656e+00  -1.795393525482182e-02   1.265604647658265e-04
2017-01-01T19:52:40.000   2.076993260125651e+04   3.650957323135608e+04  -4.652285123283421e+00  -3.086000390013667e+00  -1.991661800687300e-02   1.268285364463313e-04
2017-01-01T19:52:50.000   2.073906701203866e+04   3.650936424278917e+04  -4.651015496637284e+00  -3.087117381974876e+00  -2.188145457959046e-02   1.270968297305959e-04
2017-01-01T19:53:00.000   2.070819025474092e+04   3.650913559507312e+04  -4.649743185936644e+00  -3.088233943450530e+00  -2.384844786050725e-02   1.273653448177848e-04
2017-01-01T19:53:10.000   2.067730233369383e+04   3.650888726662553e+04  -4.648468188963007e+00  -3.089350072425562e+00  -2.581760074047588e-02   1.276340819070559e-04
2017-01-01T19:53:20.000   2.064640325356246e+04   3.650861923583966e+04  -4.647190503509091e+00  -3.090465766866901e+00  -2.778891609445364e-02   1.279030411949251e-04
2017-01-01T19:53:30.000   2.061549301894491e+04   3.650833148107865e+04  -4.645910127361989e+00  -3.091581024737846e+00  -2.976239680727998e-02   1.281722228787951e-04
2017-01-01T19:53:40.000   2.058457163453354e+04   3.650802398067749e+04  -4.644627058309855e+00  -3.092695843992260e+00  -3.173804576337015e-02   1.284416271555422e-04
2017-01-01T19:53:50.000   2.055363910440542e+04   3.650769671293581e+04  -4.643341294112502e+00  -3.093810222600126e+00  -3.371586589204374e-02   1.287112542277168e-04
2017-01-01T19:54:00.000   2.052269543273362e+04   3.650734965612490e+04  -4.642052832530856e+00  -3.094924158521867e+00  -3.569586012210883e-02   1.289811042973281e-04
2017-01-01T19:54:10.000   2.049174062360383e+04   3.650698278848592e+04  -4.640761671319397e+00  -3.096037649714964e+00  -3.767803139356882e-02   1.292511775674477e-04
2017-01-01T19:54:20.000   2.046077468150735e+04   3.650659608823361e+04  -4.639467808246446e+00  -3.097150694116094e+00  -3.966238262622233e-02   1.295214742379016e-04
2017-01-01T19:54:30.000   2.042979761093463e+04   3.650618953355351e+04  -4.638171241077468e+00  -3.098263289655828e+00  -4.164891674554223e-02   1.297919945088232e-04
2017-01-01T19:54:40.000   2.039880941646599e+04   3.650576310260246e+04  -4.636871967578783e+00  -3.099375434255326e+00  -4.363763667691622e-02   1.300627385798582e-04
2017-01-01T19:54:50.000   2.036781010274774e+04   3.650531677350976e+04  -4.635569985516726e+00  -3.100487125827230e+00  -4.562854534707289e-02   1.303337066503822e-04
2017-01-01T19:55:00.000   2.033679967446079e+04   3.650485052437534e+04  -4.634265292656191e+00  -3.101598362276729e+00  -4.762164568620115e-02   1.306048989197644e-04
2017-01-01T19:55:10.000   2.030577813630952e+04   3.650436433326991e+04  -4.632957886760181e+00  -3.102709141501930e+00  -4.961694062865405e-02   1.308763155874694e-04
2017-01-01T19:55:20.000   2.027474549291138e+04   3.650385817823371e+04  -4.631647765585226e+00  -3.103819461397836e+00  -5.161443312001529e-02   1.311479568540026e-04
2017-01-01T19:55:30.000   2.024370174887038e+04   3.650333203727679e+04  -4.630334926884374e+00  -3.104929319853642e+00  -5.361412611243804e-02   1.314198229202882e-04
2017-01-01T19:55:40.000   2.021264690877730e+04   3.650278588837922e+04  -4.629019368407226e+00  -3.106038714752720e+00  -5.561602256462803e-02   1.316919139876615e-04
2017-01-01T19:55:50.000   2.018158097713531e+04   3.650221970948894e+04  -4.627701087896687e+00  -3.107147643975229e+00  -5.762012544670467e-02   1.319642302585377e-04
2017-01-01T19:56:00.000   2.015050395847135e+04   3.650163347852424e+04  -4.626380083093758e+00  -3.108256105394134e+00  -5.962643773298377e-02   1.322367719354205e-04
2017-01-01T19:56:10.000   2.011941585734760e+04   3.650102717337406e+04  -4.625056351738007e+00  -3.109364096874778e+00  -6.163496240123797e-02   1.325095392208041e-04
2017-01-01T19:56:20.000   2.008831667839169e+04   3.650040077189736e+04  -4.623729891568755e+00  -3.110471616273736e+00  -6.364570243084185e-02   1.327825323169080e-04
2017-01-01T19:56:30.000   2.005720642632259e+04   3.649975425192498e+04  -4.622400700326298e+00  -3.111578661437941e+00  -6.565866080100001e-02   1.330557514254475e-04
2017-01-01T19:56:40.000   2.002608510585875e+04   3.649908759125721e+04  -4.621068775747946e+00  -3.112685230207891e+00  -6.767384049673873e-02   1.333291967484423e-04
2017-01-01T19:56:50.000   1.999495272212938e+04   3.649840076767442e+04  -4.619734115585826e+00  -3.113791320403105e+00  -6.969124448213820e-02   1.336028684845929e-04
2017-01-01T19:57:00.000   1.996380928017653e+04   3.649769375892444e+04  -4.618396717585343e+00  -3.114896929839709e+00  -7.171087573272843e-02   1.338767668336656e-04
2017-01-01T19:57:10.000   1.993265478514020e+04   3.649696654272700e+04  -4.617056579493178e+00  -3.116002056323867e+00  -7.373273722347233e-02   1.341508919948624e-04
2017-01-01T19:57:20.000   1.990148924154192e+04   3.649621909675717e+04  -4.615713699026462e+00  -3.117106697677167e+00  -7.575683197525018e-02   1.344252441731262e-04
2017-01-01T19:57:30.000   1.987031265399942e+04   3.649545139866156e+04  -4.614368073903494e+00  -3.118210851711247e+00  -7.778316300852008e-02   1.346998235728503e-04
2017-01-01T19:57:40.000   1.983912502706499e+04   3.649466342605501e+04  -4.613019701836820e+00  -3.119314516233512e+00  -7.981173335377982e-02   1.349746303993010e-04
2017-01-01T19:57:50.000   1.980792636562796e+04   3.649385515652797e+04  -4.611668580550323e+00  -3.120417689032760e+00  -8.184254602560870e-02   1.352496648550772e-04
2017-01-01T19:58:00.000   1.977671667461641e+04   3.649302656764163e+04  -4.610314707766637e+00  -3.121520367889834e+00  -8.387560404185820e-02   1.355249271427319e-04
2017-01-01T19:58:10.000   1.974549595899671e+04   3.649217763692694e+04  -4.608958081207009e+00  -3.122622550577566e+00  -8.591091042377864e-02   1.358004174647801e-04
2017-01-01T19:58:20.000   1.971426422407516e+04   3.649130834189526e+04  -4.607598698604699e+00  -3.123724234850232e+00  -8.794846817615586e-02   1.360761360210361e-04
2017-01-01T19:58:30.000   1.968302147509244e+04   3.649041866002482e+04  -4.606236557687050e+00  -3.124825418457729e+00  -8.998828031395639e-02   1.363520830121908e-04
2017-01-01T19:58:40.000   1.965176771738320e+04   3.648950856876573e+04  -4.604871656182530e+00  -3.125926099139944e+00  -9.203034985187335e-02   1.366282586384049e-04
2017-01-01T19:58:50.000   1.962050295567108e+04   3.648857804551945e+04  -4.603503991789917e+00  -3.127026274651577e+00  -9.407467985039690e-02   1.369046631055179e-04
2017-01-01T19:59:00.000   1.958922719477375e+04   3.648762706765896e+04  -4.602133562209064e+00  -3.128125942737264e+00  -9.612127336977275e-02   1.371812966188391e-04
2017-01-01T19:59:10.000   1.955794043944384e+04   3.648665561252457e+04  -4.600760365134005e+00  -3.129225101137178e+00  -9.817013348037301e-02   1.374581593845442e-04
2017-01-01T19:59:20.000   1.952664269477269e+04   3.648566365743362e+04  -4.599384398270347e+00  -3.130323747572705e+00  -1.002212632364786e-01   1.377352516061410e-04
2017-01-01T19:59:30.000   1.949533396589116e+04   3.648465117967393e+04  -4.598005659322457e+00  -3.131421879757052e+00  -1.022746656956613e-01   1.380125734870770e-04
2017-01-01T19:59:40.000   1.946401425796908e+04   3.648361815650272e+04  -4.596624145993313e+00  -3.132519495395194e+00  -1.043303439189114e-01   1.382901252307591e-04
2017-01-01T19:59:50.000   1.943268357651793e+04   3.648256456515915e+04  -4.595239855998151e+00  -3.133616592173375e+00  -1.063883009505746e-01   1.385679070378317e-04
2017-01-01T20:00:00.000   1.940134192698393e+04   3.648149038284834e+04  -4.593852787046221e+00  -3.134713167773211e+00  -1.084485398452645e-01   1.388459191098211e-04
2017-01-01T20:00:10.000   1.936998931490825e+04   3.648039558674730e+04  -4.592462936847930e+00  -3.135809219866101e+00  -1.105110636573035e-01   1.391241616477032e-04
2017-01-01T20:00:20.000   1.933862574521966e+04   3.647928015398021e+04  -4.591070303083495e+00  -3.136904746137931e+00  -1.125758754872540e-01   1.394026348582015e-04
2017-01-01T20:00:30.000   1.930725122294190e+04   3.647814406164285e+04  -4.589674883434253e+00  -3.137999744264306e+00  -1.146429784354160e-01   1.396813389474900e-04
2017-01-01T20:00:40.000   1.927586575303409e+04   3.647698728679740e+04  -4.588276675575642e+00  -3.139094211916125e+00  -1.167123756123011e-01   1.399602741226134e-04
